{
  "norad_id": 67351,
  "name": "STARLINK-36478",
  "history": [
    {
      "epoch": "2026-04-15T03:34:26.274144Z",
      "apogee_km": 484.0568096381103,
      "perigee_km": 482.0103968939802,
      "latitude_deg": -2.283016776922522e-05,
      "longitude_deg": 123.90666570325524,
      "height_km": 483.19405828092664,
      "semi_major_axis_km": 6861.170603266045,
      "eccentricity": 0.00014913,
      "inclination_deg": 43.0086,
      "raan_deg": 20.8313,
      "arg_perigee_deg": 248.0265,
      "mean_anomaly_deg": 112.0428,
      "mean_motion_rev_day": 15.27585174
    },
    {
      "epoch": "2026-04-16T18:48:21.295584Z",
      "apogee_km": 483.8118633161257,
      "perigee_km": 482.2571218559051,
      "latitude_deg": -4.842105848063461e-06,
      "longitude_deg": -115.41146688599785,
      "height_km": 482.7637328400091,
      "semi_major_axis_km": 6861.171492586015,
      "eccentricity": 0.0001133,
      "inclination_deg": 43.0044,
      "raan_deg": 11.6036,
      "arg_perigee_deg": 273.5202,
      "mean_anomaly_deg": 86.552,
      "mean_motion_rev_day": 15.27584877
    },
    {
      "epoch": "2026-04-17T18:20:42.045792Z",
      "apogee_km": 483.55871105742517,
      "perigee_km": 482.4734138660051,
      "latitude_deg": 3.294451360581138e-05,
      "longitude_deg": -115.00480087203839,
      "height_km": 482.8501681171722,
      "semi_major_axis_km": 6861.153062461714,
      "eccentricity": 7.909e-05,
      "inclination_deg": 43.0015,
      "raan_deg": 6.0634,
      "arg_perigee_deg": 263.8873,
      "mean_anomaly_deg": 96.1889,
      "mean_motion_rev_day": 15.27591032
    },
    {
      "epoch": "2026-04-18T17:53:02.563584Z",
      "apogee_km": 483.7521527884601,
      "perigee_km": 482.222122105808,
      "latitude_deg": 3.1012732439337995e-05,
      "longitude_deg": -114.59350718972411,
      "height_km": 482.8415531916645,
      "semi_major_axis_km": 6861.124137447134,
      "eccentricity": 0.0001115,
      "inclination_deg": 43.0024,
      "raan_deg": 0.5269,
      "arg_perigee_deg": 264.1699,
      "mean_anomaly_deg": 95.9026,
      "mean_motion_rev_day": 15.27600692
    },
    {
      "epoch": "2026-04-19T09:34:35.733216Z",
      "apogee_km": 484.0109786461853,
      "perigee_km": 481.954289424687,
      "latitude_deg": 1.7718272022442777e-06,
      "longitude_deg": 5.679584315208527,
      "height_km": 482.7286411496523,
      "semi_major_axis_km": 6861.119634035436,
      "eccentricity": 0.00014988,
      "inclination_deg": 43.003,
      "raan_deg": 356.8327,
      "arg_perigee_deg": 271.7337,
      "mean_anomaly_deg": 88.3343,
      "mean_motion_rev_day": 15.27602196
    },
    {
      "epoch": "2026-04-20T09:06:57.718080Z",
      "apogee_km": 484.10071877764585,
      "perigee_km": 482.0660924785616,
      "latitude_deg": -1.6051947821126363e-05,
      "longitude_deg": 6.083629653753704,
      "height_km": 482.7240537672749,
      "semi_major_axis_km": 6861.220405628103,
      "eccentricity": 0.00014827,
      "inclination_deg": 43.0025,
      "raan_deg": 351.2951,
      "arg_perigee_deg": 277.706,
      "mean_anomaly_deg": 82.3623,
      "mean_motion_rev_day": 15.27568542
    },
    {
      "epoch": "2026-04-20T23:14:24.258048Z",
      "apogee_km": 483.5107788425539,
      "perigee_km": 482.79473464354123,
      "latitude_deg": -2.7848045195160038e-05,
      "longitude_deg": 150.32087890797322,
      "height_km": 482.8788104356588,
      "semi_major_axis_km": 6861.289756743047,
      "eccentricity": 5.218e-05,
      "inclination_deg": 43.0024,
      "raan_deg": 347.973,
      "arg_perigee_deg": 278.0513,
      "mean_anomaly_deg": 82.0279,
      "mean_motion_rev_day": 15.27545382
    },
    {
      "epoch": "2026-04-22T00:20:52.215936Z",
      "apogee_km": 484.4512012927089,
      "perigee_km": 481.4271133656048,
      "latitude_deg": -3.296382278859219e-05,
      "longitude_deg": 126.76374021449212,
      "height_km": 482.6306760401774,
      "semi_major_axis_km": 6861.076157329157,
      "eccentricity": 0.00022038,
      "inclination_deg": 43.001,
      "raan_deg": 342.0635,
      "arg_perigee_deg": 273.2577,
      "mean_anomaly_deg": 86.8022,
      "mean_motion_rev_day": 15.27616716
    },
    {
      "epoch": "2026-04-22T22:19:03.679680Z",
      "apogee_km": 483.781617440638,
      "perigee_km": 482.1774883905664,
      "latitude_deg": 6.40068990575676e-05,
      "longitude_deg": 151.14070605987774,
      "height_km": 482.3223758524773,
      "semi_major_axis_km": 6861.1165529156015,
      "eccentricity": 0.0001169,
      "inclination_deg": 43.0089,
      "raan_deg": 336.8904,
      "arg_perigee_deg": 302.8068,
      "mean_anomaly_deg": 57.2672,
      "mean_motion_rev_day": 15.27603225
    },
    {
      "epoch": "2026-04-24T15:07:07.432896Z",
      "apogee_km": 484.07960173913307,
      "perigee_km": 481.98968885597515,
      "latitude_deg": 1.4105214950486143e-05,
      "longitude_deg": -112.15452733046826,
      "height_km": 483.5281298372724,
      "semi_major_axis_km": 6861.171645297553,
      "eccentricity": 0.0001523,
      "inclination_deg": 43.005,
      "raan_deg": 327.2865,
      "arg_perigee_deg": 226.7056,
      "mean_anomaly_deg": 133.3669,
      "mean_motion_rev_day": 15.27584826
    },
    {
      "epoch": "2026-04-25T14:39:28.264320Z",
      "apogee_km": 483.83349666797403,
      "perigee_km": 482.16898453080466,
      "latitude_deg": 3.0770948212985396e-05,
      "longitude_deg": -111.74012483156524,
      "height_km": 482.685253692864,
      "semi_major_axis_km": 6861.138240599389,
      "eccentricity": 0.0001213,
      "inclination_deg": 43.0059,
      "raan_deg": 321.7544,
      "arg_perigee_deg": 276.4291,
      "mean_anomaly_deg": 83.6423,
      "mean_motion_rev_day": 15.27595982
    },
    {
      "epoch": "2026-04-26T20:28:26.737536Z",
      "apogee_km": 483.8004684171292,
      "perigee_km": 482.20854636458444,
      "latitude_deg": 9.471055348378324e-06,
      "longitude_deg": 152.7725049399366,
      "height_km": 482.73960588815476,
      "semi_major_axis_km": 6861.1415073908565,
      "eccentricity": 0.00011601,
      "inclination_deg": 43.0016,
      "raan_deg": 314.7352,
      "arg_perigee_deg": 272.9945,
      "mean_anomaly_deg": 87.0774,
      "mean_motion_rev_day": 15.27594891
    },
    {
      "epoch": "2026-04-28T13:16:31.220832Z",
      "apogee_km": 483.3684198267074,
      "perigee_km": 482.6864200833634,
      "latitude_deg": 2.180552897605991e-05,
      "longitude_deg": -110.52020861381098,
      "height_km": 482.8683950555594,
      "semi_major_axis_km": 6861.164419955036,
      "eccentricity": 4.97e-05,
      "inclination_deg": 42.998,
      "raan_deg": 305.1368,
      "arg_perigee_deg": 258.9563,
      "mean_anomaly_deg": 101.1233,
      "mean_motion_rev_day": 15.27587239
    },
    {
      "epoch": "2026-04-29T04:58:04.741248Z",
      "apogee_km": 484.26903735634005,
      "perigee_km": 481.69474554826684,
      "latitude_deg": 1.9910215307838345e-05,
      "longitude_deg": 9.75154731897395,
      "height_km": 482.7344721193675,
      "semi_major_axis_km": 6861.118891452303,
      "eccentricity": 0.0001876,
      "inclination_deg": 43.0028,
      "raan_deg": 301.4427,
      "arg_perigee_deg": 271.1045,
      "mean_anomaly_deg": 88.9592,
      "mean_motion_rev_day": 15.27602444
    },
    {
      "epoch": "2026-04-30T12:21:12.745440Z",
      "apogee_km": 484.0563323074275,
      "perigee_km": 481.93583051728547,
      "latitude_deg": -3.729933370885687e-05,
      "longitude_deg": -109.70792354233292,
      "height_km": 482.75382171379727,
      "semi_major_axis_km": 6861.133081412356,
      "eccentricity": 0.00015453,
      "inclination_deg": 42.9997,
      "raan_deg": 294.0556,
      "arg_perigee_deg": 271.0296,
      "mean_anomaly_deg": 89.0378,
      "mean_motion_rev_day": 15.27597705
    },
    {
      "epoch": "2026-05-02T11:25:54.130080Z",
      "apogee_km": 483.9631322629675,
      "perigee_km": 482.2368450366239,
      "latitude_deg": 3.939964798921373e-06,
      "longitude_deg": -108.8926496241426,
      "height_km": 482.7487660995158,
      "semi_major_axis_km": 6861.236988649795,
      "eccentricity": 0.0001258,
      "inclination_deg": 42.9971,
      "raan_deg": 282.9767,
      "arg_perigee_deg": 278.4939,
      "mean_anomaly_deg": 81.577,
      "mean_motion_rev_day": 15.27563004
    },
    {
      "epoch": "2026-05-03T17:14:52.626624Z",
      "apogee_km": 483.928439220108,
      "perigee_km": 482.0690714304146,
      "latitude_deg": -2.418318908860446e-05,
      "longitude_deg": 155.6259716180623,
      "height_km": 482.7584660138501,
      "semi_major_axis_km": 6861.135755325261,
      "eccentricity": 0.0001355,
      "inclination_deg": 43.0,
      "raan_deg": 275.9636,
      "arg_perigee_deg": 271.0451,
      "mean_anomaly_deg": 89.0245,
      "mean_motion_rev_day": 15.27596812
    },
    {
      "epoch": "2026-05-04T16:47:13.484832Z",
      "apogee_km": 484.0247073552209,
      "perigee_km": 482.06652583644336,
      "latitude_deg": -1.881121348773983e-05,
      "longitude_deg": 156.03304719453274,
      "height_km": 482.98141655322746,
      "semi_major_axis_km": 6861.182616595832,
      "eccentricity": 0.0001427,
      "inclination_deg": 42.9997,
      "raan_deg": 270.4243,
      "arg_perigee_deg": 260.6454,
      "mean_anomaly_deg": 99.4236,
      "mean_motion_rev_day": 15.27581162
    },
    {
      "epoch": "2026-05-05T17:53:43.391904Z",
      "apogee_km": 484.1200186928827,
      "perigee_km": 481.846243481441,
      "latitude_deg": 5.816553077843634e-06,
      "longitude_deg": 132.46839516034998,
      "height_km": 482.71064511923004,
      "semi_major_axis_km": 6861.120131087162,
      "eccentricity": 0.0001657,
      "inclination_deg": 43.0012,
      "raan_deg": 264.5154,
      "arg_perigee_deg": 272.4971,
      "mean_anomaly_deg": 87.5691,
      "mean_motion_rev_day": 15.2760203
    }
  ]
}